[{"OBJECT_NAME":"STARLINK-4325","OBJECT_ID":"2022-077AB","EPOCH":"2026-03-09T23:12:40.252320","MEAN_MOTION":15.05644956,"ECCENTRICITY":0.00014527,"INCLINATION":97.6025,"RA_OF_ASC_NODE":251.5,"ARG_OF_PERICENTER":87.0821,"MEAN_ANOMALY":273.0572,"EPHEMERIS_TYPE":0,"CLASSIFICATION_TYPE":"U","NORAD_CAT_ID":53068,"ELEMENT_SET_NO":999,"REV_AT_EPOCH":20102,"BSTAR":9.019798e-6,"MEAN_MOTION_DOT":6.9e-7,"MEAN_MOTION_DDOT":0},{"OBJECT_NAME":"IRIDIUM 33 DEB","OBJECT_ID":"1997-051ABJ","EPOCH":"2026-03-07T11:02:11.153184","MEAN_MOTION":15.04355632,"ECCENTRICITY":0.00105712,"INCLINATION":86.348,"RA_OF_ASC_NODE":321.5871,"ARG_OF_PERICENTER":86.7515,"MEAN_ANOMALY":38.318,"EPHEMERIS_TYPE":0,"CLASSIFICATION_TYPE":"U","NORAD_CAT_ID":40996,"ELEMENT_SET_NO":999,"REV_AT_EPOCH":63758,"BSTAR":0.0045408492,"MEAN_MOTION_DOT":0.00063892,"MEAN_MOTION_DDOT":0}]
